{
  "norad_id": 36792,
  "name": "ECHOSTAR 15",
  "history": [
    {
      "epoch": "2026-03-28T15:55:51.215808Z",
      "apogee_km": 35794.85439211655,
      "perigee_km": 35778.50877854376,
      "latitude_deg": 0.0014333316575780818,
      "longitude_deg": -118.83473111188178,
      "height_km": 35780.87415350928,
      "semi_major_axis_km": 42164.818585330155,
      "eccentricity": 0.00019383,
      "inclination_deg": 0.0286,
      "raan_deg": 85.8571,
      "arg_perigee_deg": 270.1411,
      "mean_anomaly_deg": 310.205,
      "mean_motion_rev_day": 1.00271476
    },
    {
      "epoch": "2026-03-29T05:16:10.001280Z",
      "apogee_km": 35794.82907710134,
      "perigee_km": 35778.43541481851,
      "latitude_deg": 0.008242882859184288,
      "longitude_deg": -118.80689610225008,
      "height_km": 35793.16171111564,
      "semi_major_axis_km": 42164.76924595993,
      "eccentricity": 0.0001944,
      "inclination_deg": 0.0309,
      "raan_deg": 83.9227,
      "arg_perigee_deg": 274.1725,
      "mean_anomaly_deg": 148.7335,
      "mean_motion_rev_day": 1.00271652
    },
    {
      "epoch": "2026-03-30T05:29:27.015360Z",
      "apogee_km": 35794.72290148871,
      "perigee_km": 35778.36722131709,
      "latitude_deg": 0.00971956165068229,
      "longitude_deg": -118.8080390304517,
      "height_km": 35793.07133048277,
      "semi_major_axis_km": 42164.6820614029,
      "eccentricity": 0.00019395,
      "inclination_deg": 0.0348,
      "raan_deg": 80.5087,
      "arg_perigee_deg": 281.7745,
      "mean_anomaly_deg": 148.8615,
      "mean_motion_rev_day": 1.00271963
    },
    {
      "epoch": "2026-03-30T10:42:53.962560Z",
      "apogee_km": 35794.667292990714,
      "perigee_km": 35778.38414354217,
      "latitude_deg": 0.027553519434273165,
      "longitude_deg": -118.83561399744573,
      "height_km": 35791.63347952622,
      "semi_major_axis_km": 42164.662718266445,
      "eccentricity": 0.00019309,
      "inclination_deg": 0.0354,
      "raan_deg": 80.2752,
      "arg_perigee_deg": 282.8489,
      "mean_anomaly_deg": 226.598,
      "mean_motion_rev_day": 1.00272032
    },
    {
      "epoch": "2026-03-30T15:51:01.909728Z",
      "apogee_km": 35794.63950470824,
      "perigee_km": 35778.379973632684,
      "latitude_deg": 0.002352069254081261,
      "longitude_deg": -118.83820250325485,
      "height_km": 35781.56018355301,
      "semi_major_axis_km": 42164.646739170465,
      "eccentricity": 0.00019281,
      "inclination_deg": 0.0363,
      "raan_deg": 79.3131,
      "arg_perigee_deg": 284.766,
      "mean_anomaly_deg": 302.8874,
      "mean_motion_rev_day": 1.00272089
    },
    {
      "epoch": "2026-03-31T15:18:22.389696Z",
      "apogee_km": 35794.58532294863,
      "perigee_km": 35778.2676368819,
      "latitude_deg": 0.006888279456647328,
      "longitude_deg": -118.84094787534427,
      "height_km": 35782.88935958957,
      "semi_major_axis_km": 42164.56347991527,
      "eccentricity": 0.0001935,
      "inclination_deg": 0.0397,
      "raan_deg": 75.9457,
      "arg_perigee_deg": 292.2013,
      "mean_anomaly_deg": 291.6201,
      "mean_motion_rev_day": 1.00272386
    },
    {
      "epoch": "2026-04-01T15:46:06.144384Z",
      "apogee_km": 35794.5695111622,
      "perigee_km": 35778.11693097994,
      "latitude_deg": 0.004284310316829029,
      "longitude_deg": -118.84061909605688,
      "height_km": 35782.29660111086,
      "semi_major_axis_km": 42164.48022107107,
      "eccentricity": 0.0001951,
      "inclination_deg": 0.0425,
      "raan_deg": 74.1012,
      "arg_perigee_deg": 298.3377,
      "mean_anomaly_deg": 295.2682,
      "mean_motion_rev_day": 1.00272683
    },
    {
      "epoch": "2026-04-02T15:25:04.586016Z",
      "apogee_km": 35794.58306056218,
      "perigee_km": 35777.947517283115,
      "latitude_deg": 0.006795140953161747,
      "longitude_deg": -118.84098506282795,
      "height_km": 35783.31018643896,
      "semi_major_axis_km": 42164.402288922654,
      "eccentricity": 0.00019727,
      "inclination_deg": 0.0444,
      "raan_deg": 74.6158,
      "arg_perigee_deg": 301.8689,
      "mean_anomaly_deg": 286.9412,
      "mean_motion_rev_day": 1.00272961
    },
    {
      "epoch": "2026-04-03T15:41:05.805024Z",
      "apogee_km": 35794.622745476285,
      "perigee_km": 35777.75701472425,
      "latitude_deg": 0.003146181694697225,
      "longitude_deg": -118.83886428635182,
      "height_km": 35783.05544156057,
      "semi_major_axis_km": 42164.32688010027,
      "eccentricity": 0.0002,
      "inclination_deg": 0.0466,
      "raan_deg": 73.7364,
      "arg_perigee_deg": 306.7277,
      "mean_anomaly_deg": 287.9685,
      "mean_motion_rev_day": 1.0027323
    },
    {
      "epoch": "2026-04-04T05:22:37.056000Z",
      "apogee_km": 35794.65912390015,
      "perigee_km": 35777.628127669785,
      "latitude_deg": 0.0113768617120666,
      "longitude_deg": -118.79789607705534,
      "height_km": 35791.30650795272,
      "semi_major_axis_km": 42164.280625784966,
      "eccentricity": 0.00020196,
      "inclination_deg": 0.0477,
      "raan_deg": 72.9331,
      "arg_perigee_deg": 310.0127,
      "mean_anomaly_deg": 131.4323,
      "mean_motion_rev_day": 1.00273395
    },
    {
      "epoch": "2026-04-05T08:58:38.425440Z",
      "apogee_km": 35794.71258586132,
      "perigee_km": 35777.421045876436,
      "latitude_deg": 0.03121061458806979,
      "longitude_deg": -118.8106810176159,
      "height_km": 35794.229152425105,
      "semi_major_axis_km": 42164.20381586888,
      "eccentricity": 0.00020505,
      "inclination_deg": 0.0494,
      "raan_deg": 73.979,
      "arg_perigee_deg": 312.921,
      "mean_anomaly_deg": 182.6251,
      "mean_motion_rev_day": 1.00273669
    },
    {
      "epoch": "2026-04-06T05:39:57.516768Z",
      "apogee_km": 35795.412434344136,
      "perigee_km": 35776.55916847472,
      "latitude_deg": 0.02424111163538968,
      "longitude_deg": -118.77882034349112,
      "height_km": 35794.50913229567,
      "semi_major_axis_km": 42164.12280140943,
      "eccentricity": 0.00022357,
      "inclination_deg": 0.0507,
      "raan_deg": 72.8051,
      "arg_perigee_deg": 284.9573,
      "mean_anomaly_deg": 162.9661,
      "mean_motion_rev_day": 1.00273958
    },
    {
      "epoch": "2026-04-07T13:48:38.625984Z",
      "apogee_km": 35796.51817858017,
      "perigee_km": 35777.21503992785,
      "latitude_deg": -6.055670128553192e-06,
      "longitude_deg": -118.81110848143054,
      "height_km": 35782.91538564387,
      "semi_major_axis_km": 42165.00360925401,
      "eccentricity": 0.0002289,
      "inclination_deg": 0.0528,
      "raan_deg": 74.4657,
      "arg_perigee_deg": 278.719,
      "mean_anomaly_deg": 291.0361,
      "mean_motion_rev_day": 1.00270816
    },
    {
      "epoch": "2026-04-07T15:31:13.788768Z",
      "apogee_km": 35796.50014925127,
      "perigee_km": 35777.2644674428,
      "latitude_deg": -0.0162643012059209,
      "longitude_deg": -118.80500094287082,
      "height_km": 35779.400286071184,
      "semi_major_axis_km": 42165.01930834704,
      "eccentricity": 0.0002281,
      "inclination_deg": 0.0529,
      "raan_deg": 74.4681,
      "arg_perigee_deg": 278.9464,
      "mean_anomaly_deg": 316.5227,
      "mean_motion_rev_day": 1.0027076
    },
    {
      "epoch": "2026-04-08T13:46:11.116992Z",
      "apogee_km": 35796.27628016662,
      "perigee_km": 35777.46646993051,
      "latitude_deg": -0.003381712290556435,
      "longitude_deg": -118.81515012256428,
      "height_km": 35783.25768143651,
      "semi_major_axis_km": 42165.008375048565,
      "eccentricity": 0.00022305,
      "inclination_deg": 0.0543,
      "raan_deg": 74.3968,
      "arg_perigee_deg": 280.7875,
      "mean_anomaly_deg": 289.4019,
      "mean_motion_rev_day": 1.00270799
    },
    {
      "epoch": "2026-04-09T14:50:31.244352Z",
      "apogee_km": 35796.06822889149,
      "perigee_km": 35777.59154040264,
      "latitude_deg": -0.01683567833319006,
      "longitude_deg": -118.81533290730711,
      "height_km": 35781.05771883308,
      "semi_major_axis_km": 42164.96688464707,
      "eccentricity": 0.0002191,
      "inclination_deg": 0.0559,
      "raan_deg": 74.7559,
      "arg_perigee_deg": 282.152,
      "mean_anomaly_deg": 304.7887,
      "mean_motion_rev_day": 1.00270947
    },
    {
      "epoch": "2026-04-10T11:58:28.792704Z",
      "apogee_km": 35795.86533920881,
      "perigee_km": 35777.742847526875,
      "latitude_deg": 0.013618426754783084,
      "longitude_deg": -118.8220100394351,
      "height_km": 35787.67002602718,
      "semi_major_axis_km": 42164.941093367845,
      "eccentricity": 0.0002149,
      "inclination_deg": 0.0574,
      "raan_deg": 74.6705,
      "arg_perigee_deg": 283.4452,
      "mean_anomaly_deg": 261.4362,
      "mean_motion_rev_day": 1.00271039
    },
    {
      "epoch": "2026-04-11T15:21:15.562080Z",
      "apogee_km": 35795.63461673092,
      "perigee_km": 35777.925351597565,
      "latitude_deg": -0.0244296943284657,
      "longitude_deg": -118.81966062385182,
      "height_km": 35780.383267764606,
      "semi_major_axis_km": 42164.91698416424,
      "eccentricity": 0.00021,
      "inclination_deg": 0.0598,
      "raan_deg": 75.3941,
      "arg_perigee_deg": 284.3093,
      "mean_anomaly_deg": 311.6651,
      "mean_motion_rev_day": 1.00271125
    },
    {
      "epoch": "2026-04-13T05:00:02.965824Z",
      "apogee_km": 35795.34767185385,
      "perigee_km": 35778.16632084822,
      "latitude_deg": 0.03940024935267603,
      "longitude_deg": -118.7981425867521,
      "height_km": 35794.15909056897,
      "semi_major_axis_km": 42164.89399635104,
      "eccentricity": 0.00020374,
      "inclination_deg": 0.0634,
      "raan_deg": 75.87,
      "arg_perigee_deg": 284.9643,
      "mean_anomaly_deg": 156.7747,
      "mean_motion_rev_day": 1.00271207
    }
  ]
}